[{"OBJECT_NAME":"STARLINK-2725","OBJECT_ID":"2021-044AV","EPOCH":"2026-03-09T06:15:38.880288","MEAN_MOTION":15.30195858,"ECCENTRICITY":0.00012383,"INCLINATION":53.1605,"RA_OF_ASC_NODE":77.2652,"ARG_OF_PERICENTER":98.882,"MEAN_ANOMALY":261.2321,"EPHEMERIS_TYPE":0,"CLASSIFICATION_TYPE":"U","NORAD_CAT_ID":48681,"ELEMENT_SET_NO":999,"REV_AT_EPOCH":26429,"BSTAR":0.00025290557,"MEAN_MOTION_DOT":7.137e-5,"MEAN_MOTION_DDOT":0},{"OBJECT_NAME":"KUIPER-00252","OBJECT_ID":"2025-301AA","EPOCH":"2026-03-09T22:00:01.999584","MEAN_MOTION":15.32961042,"ECCENTRICITY":0.00108625,"INCLINATION":51.8682,"RA_OF_ASC_NODE":64.6463,"ARG_OF_PERICENTER":55.9089,"MEAN_ANOMALY":330.8749,"EPHEMERIS_TYPE":0,"CLASSIFICATION_TYPE":"U","NORAD_CAT_ID":67157,"ELEMENT_SET_NO":999,"REV_AT_EPOCH":542,"BSTAR":-0.017504489,"MEAN_MOTION_DOT":-0.00529484,"MEAN_MOTION_DDOT":0}]
